NORAD_CAT_ID,OBJECT_NAME,OBJECT_TYPE,EPOCH,MEAN_MOTION,ECCENTRICITY,INCLINATION,RA_OF_ASC_NODE,ARG_OF_PERICENTER,MEAN_ANOMALY,BSTAR,MEAN_MOTION_DOT,MEAN_MOTION_DDOT,TLE_LINE0,TLE_LINE1,TLE_LINE2,SEMIMAJOR_AXIS,PERIOD,APOGEE,PERIGEE,DECAYED
54007.0,STARLINK-5132,PAYLOAD,2024-04-09 07:13:18,15.0884387,0.000142,53.2162,113.4431,90.5997,269.5158,0.00013173,1.809e-05,0.0,0 STARLINK-5132,1 54007U 22125AV  24100.30090294  .00001809  00000-0  13173-3 0  9998,2 54007  53.2162 113.4431 0001420  90.5997 269.5158 15.08843870 83887,6917.869,95.437,540.716,538.751,0.0
54007.0,STARLINK-5132,PAYLOAD,2024-04-09 18:20:59,15.08849163,0.0001422,53.2163,111.3614,90.4688,269.6467,0.00013361,1.84e-05,0.0,0 STARLINK-5132,1 54007U 22125AV  24100.76457806  .00001840  00000-0  13361-3 0  9998,2 54007  53.2163 111.3614 0001422  90.4688 269.6467 15.08849163 83959,6917.852,95.437,540.701,538.734,0.0
54007.0,STARLINK-5132,PAYLOAD,2024-04-10 03:53:16,15.08870007,0.0001111,53.2163,109.5774,80.0223,280.0895,0.00028617,4.273e-05,0.0,0 STARLINK-5132,1 54007U 22125AV  24101.16199440  .00004273  00000-0  28617-3 0  9993,2 54007  53.2163 109.5774 0001111  80.0223 280.0895 15.08870007 84066,6917.789,95.436,540.422,538.885,0.0
54007.0,STARLINK-5132,PAYLOAD,2024-04-10 10:14:51,15.08836272,0.0001369,53.2165,108.3871,89.6868,270.4281,-4.3327e-05,-9.77e-06,0.0,0 STARLINK-5132,1 54007U 22125AV  24101.42698320 -.00000977  00000-0 -43327-4 0  9998,2 54007  53.2165 108.3871 0001369  89.6868 270.4281 15.08836272 84101,6917.892,95.438,540.704,538.81,0.0
54007.0,STARLINK-5132,PAYLOAD,2024-04-11 06:54:52,15.08832127,0.0001428,53.2165,104.5208,92.6113,267.5043,-8.43e-05,-1.629e-05,0.0,0 STARLINK-5132,1 54007U 22125AV  24102.28810914 -.00001629  00000-0 -84300-4 0  9999,2 54007  53.2165 104.5208 0001428  92.6113 267.5043 15.08832127 84182,6917.904,95.438,540.757,538.782,0.0
54007.0,STARLINK-5132,PAYLOAD,2024-04-12 05:10:13,15.08911485,0.0001504,53.2164,100.3573,71.6124,288.5031,-0.00111,-0.00017945,0.0,0 STARLINK-5132,1 54007U 22125AV  24103.21543612 -.00017945  00000-0 -11100-2 0  9995,2 54007  53.2164 100.3573 0001504  71.6124 288.5031 15.08911485 84370,6917.662,95.433,540.567,538.486,0.0
54007.0,STARLINK-5132,PAYLOAD,2024-04-12 22:39:31,15.08829146,0.0001374,53.2165,97.0874,90.9071,269.2079,0.00016039,2.265e-05,0.0,0 STARLINK-5132,1 54007U 22125AV  24103.94411085  .00002265  00000-0  16039-3 0  9997,2 54007  53.2165  97.0874 0001374  90.9071 269.2079 15.08829146 84434,6917.914,95.438,540.729,538.828,0.0
54007.0,STARLINK-5132,PAYLOAD,2024-04-13 05:01:03,15.08834364,0.0001374,53.2168,95.8989,92.0812,268.0338,0.00018803,2.705e-05,0.0,0 STARLINK-5132,1 54007U 22125AV  24104.20907027  .00002705  00000-0  18803-3 0  9993,2 54007  53.2168  95.8989 0001374  92.0812 268.0338 15.08834364 84529,6917.898,95.438,540.713,538.812,0.0
54007.0,STARLINK-5132,PAYLOAD,2024-04-13 08:11:49,15.08838522,0.0001405,53.2159,95.3037,90.5082,269.6071,0.00021313,3.106e-05,0.0,0 STARLINK-5132,1 54007U 22125AV  24104.34154943  .00003106  00000-0  21313-3 0  9995,2 54007  53.2159  95.3037 0001405  90.5082 269.6071 15.08838522 84492,6917.885,95.438,540.722,538.778,0.0
54007.0,STARLINK-5132,PAYLOAD,2024-04-14 06:27:14,15.08838388,0.0001462,53.2165,91.1407,92.3186,267.7973,7.5221e-05,9.09e-06,0.0,0 STARLINK-5132,1 54007U 22125AV  24105.26891221  .00000909  00000-0  75221-4 0  9990,2 54007  53.2165  91.1407 0001462  92.3186 267.7973 15.08838388 84683,6917.885,95.438,540.762,538.739,0.0
54007.0,STARLINK-5132,PAYLOAD,2024-04-15 07:53:24,15.0884251,0.0001456,53.2165,86.3829,87.0624,273.0535,0.00011904,1.607e-05,0.0,0 STARLINK-5132,1 54007U 22125AV  24106.32875304  .00001607  00000-0  11904-3 0  9995,2 54007  53.2165  86.3829 0001456  87.0624 273.0535 15.08842510 84842,6917.873,95.437,540.745,538.73,0.0
54007.0,STARLINK-5132,PAYLOAD,2024-04-16 04:33:23,15.08869693,0.0001325,53.2161,82.5181,92.647,267.4674,-0.00047177,-7.794e-05,0.0,0 STARLINK-5132,1 54007U 22125AV  24107.18985774 -.00007794  00000-0 -47177-3 0  9999,2 54007  53.2161  82.5181 0001325  92.6470 267.4674 15.08869693 84979,6917.79,95.436,540.571,538.738,0.0
54007.0,STARLINK-5132,PAYLOAD,2024-04-16 07:44:10,15.08855244,0.0001388,53.2161,81.9209,100.5863,259.5286,0.00033367,5.029e-05,0.0,0 STARLINK-5132,1 54007U 22125AV  24107.32234722  .00005029  00000-0  33367-3 0  9998,2 54007  53.2161  81.9209 0001388 100.5863 259.5286 15.08855244 84997,6917.834,95.437,540.659,538.739,0.0
54007.0,STARLINK-5132,PAYLOAD,2024-04-16 15:41:06,15.08847055,0.0001508,53.2177,80.4336,88.5322,271.5843,0.00020833,3.03e-05,0.0,0 STARLINK-5132,1 54007U 22125AV  24107.65355122  .00003030  00000-0  20833-3 0  9996,2 54007  53.2177  80.4336 0001508  88.5322 271.5843 15.08847055 85049,6917.859,95.437,540.767,538.681,0.0
54007.0,STARLINK-5132,PAYLOAD,2024-04-17 07:34:57,15.08857171,0.0001508,53.216,77.4592,96.8433,263.273,0.00035432,5.358e-05,0.0,0 STARLINK-5132,1 54007U 22125AV  24108.31594501  .00005358  00000-0  35432-3 0  9992,2 54007  53.2160  77.4592 0001508  96.8433 263.2730 15.08857171 85094,6917.828,95.436,540.736,538.65,0.0
54007.0,STARLINK-5132,PAYLOAD,2024-04-18 04:14:59,15.08829408,0.0001357,53.2167,73.5958,109.2243,250.8896,-0.00011295,-2.085e-05,0.0,0 STARLINK-5132,1 54007U 22125AV  24109.17707794 -.00002085  00000-0 -11295-3 0  9994,2 54007  53.2167  73.5958 0001357 109.2243 250.8896 15.08829408 85271,6917.913,95.438,540.717,538.839,0.0
54007.0,STARLINK-5132,PAYLOAD,2024-04-18 07:25:45,15.08830034,0.0001374,53.2167,73.0001,112.9405,247.1732,-2.9816e-05,-7.62e-06,0.0,0 STARLINK-5132,1 54007U 22125AV  24109.30955878 -.00000762  00000-0 -29816-4 0  9996,2 54007  53.2167  73.0001 0001374 112.9405 247.1732 15.08830034 85247,6917.911,95.438,540.726,538.825,0.0
54007.0,STARLINK-5132,PAYLOAD,2024-04-19 07:16:33,15.08843995,0.0001445,53.2177,68.5377,113.4129,246.7015,0.0006641,0.00010298,0.0,0 STARLINK-5132,1 54007U 22125AV  24110.30316381  .00010298  00000-0  66410-3 0  9991,2 54007  53.2177  68.5377 0001445 113.4129 246.7015 15.08843995 85442,6917.868,95.437,540.733,538.734,0.0
54007.0,STARLINK-5132,PAYLOAD,2024-04-20 03:56:33,15.08874793,0.0001419,53.218,64.6709,96.981,263.1344,0.0010871,0.00017072,0.0,0 STARLINK-5132,1 54007U 22125AV  24111.16427365  .00017072  00000-0  10871-2 0  9997,2 54007  53.2180  64.6709 0001419  96.9810 263.1344 15.08874793 85577,6917.774,95.435,540.621,538.657,0.0
54007.0,STARLINK-5132,PAYLOAD,2024-04-20 19:50:24,15.08841073,0.0001494,53.2183,61.6977,105.4566,254.6591,-6.0511e-05,-1.251e-05,0.0,0 STARLINK-5132,1 54007U 22125AV  24111.82667739 -.00001251  00000-0 -60511-4 0  9993,2 54007  53.2183  61.6977 0001494 105.4566 254.6591 15.08841073 85676,6917.877,95.437,540.776,538.709,0.0
54007.0,STARLINK-5132,PAYLOAD,2024-04-21 02:11:57,15.08832227,0.0001528,53.2173,60.5065,97.7009,262.4157,-0.00018909,-3.295e-05,0.0,0 STARLINK-5132,1 54007U 22125AV  24112.09164198 -.00003295  00000-0 -18909-3 0  9997,2 54007  53.2173  60.5065 0001528  97.7009 262.4157 15.08832227 85715,6917.904,95.438,540.826,538.712,0.0
54007.0,STARLINK-5132,PAYLOAD,2024-04-21 05:22:44,15.08831125,0.0001485,53.2173,59.9123,91.3337,268.7825,-0.00013757,-2.476e-05,0.0,0 STARLINK-5132,1 54007U 22125AV  24112.22412330 -.00002476  00000-0 -13757-3 0  9992,2 54007  53.2173  59.9123 0001485  91.3337 268.7825 15.08831125 85681,6917.908,95.438,540.8,538.745,0.0
54007.0,STARLINK-5132,PAYLOAD,2024-04-21 19:41:13,15.08826547,0.0001556,53.2168,57.2366,94.5899,265.5271,-4.9115e-05,-1.069e-05,0.0,0 STARLINK-5132,1 54007U 22125AV  24112.82029103 -.00001069  00000-0 -49115-4 0  9995,2 54007  53.2168  57.2366 0001556  94.5899 265.5271 15.08826547 85774,6917.922,95.438,540.863,538.71,0.0
54007.0,STARLINK-5132,PAYLOAD,2024-04-22 03:38:08,15.08853051,0.0001631,53.2174,55.7512,87.6367,272.4811,0.00063811,9.886e-05,0.0,0 STARLINK-5132,1 54007U 22125AV  24113.15148315  .00009886  00000-0  63811-3 0  9990,2 54007  53.2174  55.7512 0001631  87.6367 272.4811 15.08853051 85872,6917.84,95.437,540.834,538.577,0.0
54007.0,STARLINK-5132,PAYLOAD,2024-04-22 05:13:31,15.08857666,0.0001583,53.2173,55.4521,102.7346,257.3824,0.00074926,0.00011662,0.0,0 STARLINK-5132,1 54007U 22125AV  24113.21772084  .00011662  00000-0  74926-3 0  9997,2 54007  53.2173  55.4521 0001583 102.7346 257.3824 15.08857666 85838,6917.826,95.436,540.786,538.596,0.0
54007.0,STARLINK-5132,PAYLOAD,2024-04-22 19:32:00,15.0883357,0.0001324,53.2174,52.7808,114.239,245.8741,0.00017212,2.452e-05,0.0,0 STARLINK-5132,1 54007U 22125AV  24113.81389044  .00002452  00000-0  17212-3 0  9995,2 54007  53.2174  52.7808 0001324 114.2390 245.8741 15.08833570 85970,6917.9,95.438,540.681,538.849,0.0
54007.0,STARLINK-5132,PAYLOAD,2024-04-23 05:04:18,15.08852905,0.0001644,53.2173,50.9971,99.4092,260.7086,0.00053931,8.309e-05,0.0,0 STARLINK-5132,1 54007U 22125AV  24114.21132643  .00008309  00000-0  53931-3 0  9996,2 54007  53.2173  50.9971 0001644  99.4092 260.7086 15.08852905 86037,6917.841,95.437,540.843,538.569,0.0
54007.0,STARLINK-5132,PAYLOAD,2024-04-23 19:22:47,15.08826466,0.0001148,53.2183,48.3172,145.5336,214.5731,0.00031243,4.686e-05,0.0,0 STARLINK-5132,1 54007U 22125AV  24114.80749135  .00004686  00000-0  31243-3 0  9997,2 54007  53.2183  48.3172 0001148 145.5336 214.5731 15.08826466 86122,6917.922,95.438,540.581,538.993,0.0
54007.0,STARLINK-5132,PAYLOAD,2024-04-24 01:44:19,15.08850181,0.0002554,53.2181,47.1308,144.2848,215.8315,0.00074799,0.0001164,0.0,0 STARLINK-5132,1 54007U 22125AV  24115.07244595  .00011640  00000-0  74799-3 0  9998,2 54007  53.2181  47.1308 0002554 144.2848 215.8315 15.08850181 86161,6917.849,95.437,541.481,537.947,0.0
54007.0,STARLINK-5132,PAYLOAD,2024-04-24 22:24:20,15.08845963,0.0001626,53.2176,43.2704,114.3414,245.7748,0.00043702,6.675e-05,0.0,0 STARLINK-5132,1 54007U 22125AV  24115.93356999  .00006675  00000-0  43702-3 0  9997,2 54007  53.2176  43.2704 0001626 114.3414 245.7748 15.08845963 86241,6917.862,95.437,540.852,538.602,0.0
